QIANFAN-33              
1 61566U 24185Q   25308.28470886  .00000509  00000+0  35869-3 0  9992
2 61566  88.9774  83.0888 0008832  88.4307 271.7882 13.96500411 63795
QIANFAN-34              
1 61567U 24185R   25308.26500924  .00000442  00000+0  27972-3 0  9990
2 61567  88.9753  82.7063 0007242  94.8752 265.3255 14.02252636 63966
QIANFAN-35              
1 61568U 24185S   25308.29533206  .00000937  00000+0  37279-3 0  9993
2 61568  88.9780  81.3856 0008281  62.7229 297.4808 14.27864619 64697
QIANFAN-36              
1 61569U 24185T   25308.28492238  .00000214  00000+0  29062-3 0  9991
2 61569  88.9757  85.0449 0007121 143.0380 217.1265 13.55570619 62715
QIANFAN-37              
1 62238U 24232B   25308.25683655  .00000173  00000+0  24916-3 0  9997
2 62238  89.0037  45.2058 0001851 128.7647 231.3670 13.50977798 93970
QIANFAN-38              
1 62239U 24232C   25308.28136189  .00000158  00000+0  22671-3 0  9995
2 62239  89.0043  45.1164 0012879 309.4717  50.5294 13.50973568 94035
QIANFAN-39              
1 62240U 24232D   25308.30363285  .00000709  00000+0  29471-3 0  9996
2 62240  89.0038  41.6966 0015817 196.9022 163.1646 14.25324742 95912
QIANFAN-40              
1 62241U 24232E   25308.31429806  .00000173  00000+0  24998-3 0  9994
2 62241  89.0072  44.6871 0011951 318.4829  41.5413 13.50972668 94407
